{"type": "FeatureCollection", "features": [ {"type": "Feature", "properties": {"norad_id": 38817, "name": "FENGYUN 1C DEB", "group": "fengyun-1c-debris", "lat": -68.80734676370402, "lon": 11.69668497364208, "alt_km": 1255.094373270459, "timestamp": "2025-12-09T23:33:24.145357+00:00", "meta": {"OBJECT_NAME": "FENGYUN 1C DEB", "OBJECT_ID": "1999-025EVH", "EPOCH": "2025-12-09T09:57:11.671488", "MEAN_MOTION": 13.57673214, "ECCENTRICITY": 0.0291164, "INCLINATION": 98.5997, "RA_OF_ASC_NODE": 214.1716, "ARG_OF_PERICENTER": 53.0106, "MEAN_ANOMALY": 309.7311, "EPHEMERIS_TYPE": 0, "CLASSIFICATION_TYPE": "U", "NORAD_CAT_ID": 38817, "ELEMENT_SET_NO": 999, "REV_AT_EPOCH": 65789, "BSTAR": 0.0028743658, "MEAN_MOTION_DOT": 2.687e-05, "MEAN_MOTION_DDOT": 0}, "tle": {"line1": "1 38817U 99025EVH 25343.41471842  .00002687  00000+0  28744-2 0  9999", "line2": "2 38817  98.5997 214.1716 0291164  53.0106 309.7311 13.57673214657894"}}, "geometry": {"type": "Point", "coordinates": [11.69668497364208, -68.80734676370402]}}, {"type": "Feature", "properties": {"norad_id": 38818, "name": "FENGYUN 1C DEB", "group": "fengyun-1c-debris", "lat": 77.78089265951726, "lon": -2.0140986466628097, "alt_km": 695.0310271306334, "timestamp": "2025-12-09T23:33:24.145367+00:00", "meta": {"OBJECT_NAME": "FENGYUN 1C DEB", "OBJECT_ID": "1999-025EVJ", "EPOCH": "2025-12-06T10:12:01.626048", "MEAN_MOTION": 14.3946, "ECCENTRICITY": 0.00901356, "INCLINATION": 98.298, "RA_OF_ASC_NODE": 36.9131, "ARG_OF_PERICENTER": 117.8353, "MEAN_ANOMALY": 264.169, "EPHEMERIS_TYPE": 0, "CLASSIFICATION_TYPE": "U", "NORAD_CAT_ID": 38818, "ELEMENT_SET_NO": 999, "REV_AT_EPOCH": 67157, "BSTAR": 0.00089213559, "MEAN_MOTION_DOT": 2.872e-05, "MEAN_MOTION_DDOT": 0}, "tle": {"line1": "1 38818U 99025EVJ 25340.42501882  .00002872  00000+0  89214-3 0  9992", "line2": "2 38818  98.2980  36.9131 0090135 117.8353 264.1690 14.39460000671576"}}, "geometry": {"type": "Point", "coordinates": [-2.0140986466628097, 77.78089265951726]}}, {"type": "Feature", "properties": {"norad_id": 38819, "name": "FENGYUN 1C DEB", "group": "fengyun-1c-debris", "lat": -61.40303094974379, "lon": 140.71801344281278, "alt_km": 790.6178947198623, "timestamp": "2025-12-09T23:33:24.145378+00:00", "meta": {"OBJECT_NAME": "FENGYUN 1C DEB", "OBJECT_ID": "1999-025EVK", "EPOCH": "2025-12-05T17:44:45.178656", "MEAN_MOTION": 14.19352326, "ECCENTRICITY": 0.00793982, "INCLINATION": 98.6175, "RA_OF_ASC_NODE": 332.7424, "ARG_OF_PERICENTER": 214.8039, "MEAN_ANOMALY": 323.5095, "EPHEMERIS_TYPE": 0, "CLASSIFICATION_TYPE": "U", "NORAD_CAT_ID": 38819, "ELEMENT_SET_NO": 999, "REV_AT_EPOCH": 63378, "BSTAR": 0.00071386354, "MEAN_MOTION_DOT": 1.505e-05, "MEAN_MOTION_DDOT": 0}, "tle": {"line1": "1 38819U 99025EVK 25339.73941179  .00001505  00000+0  71386-3 0  9995", "line2": "2 38819  98.6175 332.7424 0079398 214.8039 323.5095 14.19352326633785"}}, "geometry": {"type": "Point", "coordinates": [140.71801344281278, -61.40303094974379]}}, {"type": "Feature", "properties": {"norad_id": 38824, "name": "FENGYUN 1C DEB", "group": "fengyun-1c-debris", "lat": -36.56123440318848, "lon": 124.41709224081488, "alt_km": 879.2563925023424, "timestamp": "2025-12-09T23:33:24.145388+00:00", "meta": {"OBJECT_NAME": "FENGYUN 1C DEB", "OBJECT_ID": "1999-025EVQ", "EPOCH": "2025-11-20T14:24:21.461760", "MEAN_MOTION": 14.13875773, "ECCENTRICITY": 0.00960414, "INCLINATION": 99.2955, "RA_OF_ASC_NODE": 97.2934, "ARG_OF_PERICENTER": 263.2679, "MEAN_ANOMALY": 95.7556, "EPHEMERIS_TYPE": 0, "CLASSIFICATION_TYPE": "U", "NORAD_CAT_ID": 38824, "ELEMENT_SET_NO": 999, "REV_AT_EPOCH": 68824, "BSTAR": 0.0027703315, "MEAN_MOTION_DOT": 5.443e-05, "MEAN_MOTION_DDOT": 0}, "tle": {"line1": "1 38824U 99025EVQ 25324.60024840  .00005443  00000+0  27703-2 0  9996", "line2": "2 38824  99.2955  97.2934 0096041 263.2679  95.7556 14.13875773688246"}}, "geometry": {"type": "Point", "coordinates": [124.41709224081488, -36.56123440318848]}}, {"type": "Feature", "properties": {"norad_id": 38827, "name": "FENGYUN 1C DEB", "group": "fengyun-1c-debris", "lat": 48.5197400139913, "lon": -2.6115599845509685, "alt_km": 769.6169499858479, "timestamp": "2025-12-09T23:33:24.145399+00:00", "meta": {"OBJECT_NAME": "FENGYUN 1C DEB", "OBJECT_ID": "1999-025EVT", "EPOCH": "2025-12-09T08:14:54.920544", "MEAN_MOTION": 14.32819284, "ECCENTRICITY": 0.02165071, "INCLINATION": 98.387, "RA_OF_ASC_NODE": 6.3763, "ARG_OF_PERICENTER": 323.0206, "MEAN_ANOMALY": 35.6218, "EPHEMERIS_TYPE": 0, "CLASSIFICATION_TYPE": "U", "NORAD_CAT_ID": 38827, "ELEMENT_SET_NO": 999, "REV_AT_EPOCH": 61011, "BSTAR": 0.0014891036, "MEAN_MOTION_DOT": 5.223e-05, "MEAN_MOTION_DDOT": 0}, "tle": {"line1": "1 38827U 99025EVT 25343.34369121  .00005223  00000+0  14891-2 0  9995", "line2": "2 38827  98.3870   6.3763 0216507 323.0206  35.6218 14.32819284610113"}}, "geometry": {"type": "Point", "coordinates": [-2.6115599845509685, 48.5197400139913]}}, {"type": "Feature", "properties": {"norad_id": 38829, "name": "FENGYUN 1C DEB", "group": "fengyun-1c-debris", "lat": -40.48467582898269, "lon": 172.47908615105055, "alt_km": 898.4288282468215, "timestamp": "2025-12-09T23:33:24.145410+00:00", "meta": {"OBJECT_NAME": "FENGYUN 1C DEB", "OBJECT_ID": "1999-025EVV", "EPOCH": "2025-12-09T00:21:36.740448", "MEAN_MOTION": 14.09204393, "ECCENTRICITY": 0.00412839, "INCLINATION": 98.7497, "RA_OF_ASC_NODE": 359.0946, "ARG_OF_PERICENTER": 41.119, "MEAN_ANOMALY": 319.3079, "EPHEMERIS_TYPE": 0, "CLASSIFICATION_TYPE": "U", "NORAD_CAT_ID": 38829, "ELEMENT_SET_NO": 999, "REV_AT_EPOCH": 64080, "BSTAR": 0.00074064709, "MEAN_MOTION_DOT": 1.255e-05, "MEAN_MOTION_DDOT": 0}, "tle": {"line1": "1 38829U 99025EVV 25343.01500857  .00001255  00000+0  74065-3 0  9995", "line2": "2 38829  98.7497 359.0946 0041283  41.1190 319.3079 14.09204393640801"}}, "geometry": {"type": "Point", "coordinates": [172.47908615105055, -40.48467582898269]}}, {"type": "Feature", "properties": {"norad_id": 38832, "name": "FENGYUN 1C DEB", "group": "fengyun-1c-debris", "lat": -15.576627311914393, "lon": 30.901769302186043, "alt_km": 857.9831735540365, "timestamp": "2025-12-09T23:33:24.145420+00:00", "meta": {"OBJECT_NAME": "FENGYUN 1C DEB", "OBJECT_ID": "1999-025EVY", "EPOCH": "2025-12-06T01:35:41.081280", "MEAN_MOTION": 14.04461067, "ECCENTRICITY": 0.00842955, "INCLINATION": 99.2666, "RA_OF_ASC_NODE": 24.2995, "ARG_OF_PERICENTER": 61.4582, "MEAN_ANOMALY": 299.5038, "EPHEMERIS_TYPE": 0, "CLASSIFICATION_TYPE": "U", "NORAD_CAT_ID": 38832, "ELEMENT_SET_NO": 999, "REV_AT_EPOCH": 63664, "BSTAR": 0.0018423355, "MEAN_MOTION_DOT": 2.987e-05, "MEAN_MOTION_DDOT": 0}, "tle": {"line1": "1 38832U 99025EVY 25340.06644770  .00002987  00000+0  18423-2 0  9992", "line2": "2 38832  99.2666  24.2995 0084295  61.4582 299.5038 14.04461067636643"}}, "geometry": {"type": "Point", "coordinates": [30.901769302186043, -15.576627311914393]}}, {"type": "Feature", "properties": {"norad_id": 39537, "name": "FENGYUN 1C DEB", "group": "fengyun-1c-debris", "lat": 32.881106149605586, "lon": 123.81569096780436, "alt_km": 853.7238458622451, "timestamp": "2025-12-09T23:33:24.145430+00:00", "meta": {"OBJECT_NAME": "FENGYUN 1C DEB", "OBJECT_ID": "1999-025EWE", "EPOCH": "2025-12-08T16:10:28.003008", "MEAN_MOTION": 13.84154142, "ECCENTRICITY": 0.01774078, "INCLINATION": 99.1538, "RA_OF_ASC_NODE": 128.5243, "ARG_OF_PERICENTER": 352.1329, "MEAN_ANOMALY": 7.7052, "EPHEMERIS_TYPE": 0, "CLASSIFICATION_TYPE": "U", "NORAD_CAT_ID": 39537, "ELEMENT_SET_NO": 999, "REV_AT_EPOCH": 59200, "BSTAR": 0.0019509183, "MEAN_MOTION_DOT": 2.413e-05, "MEAN_MOTION_DDOT": 0}, "tle": {"line1": "1 39537U 99025EWE 25342.67393522  .00002413  00000+0  19509-2 0  9990", "line2": "2 39537  99.1538 128.5243 0177407 352.1329   7.7052 13.84154142592000"}}, "geometry": {"type": "Point", "coordinates": [123.81569096780436, 32.881106149605586]}}, {"type": "Feature", "properties": {"norad_id": 39541, "name": "FENGYUN 1C DEB", "group": "fengyun-1c-debris", "lat": 63.32323701907859, "lon": -136.15359037009216, "alt_km": 775.0519180130013, "timestamp": "2025-12-09T23:33:24.145440+00:00", "meta": {"OBJECT_NAME": "FENGYUN 1C DEB", "OBJECT_ID": "1999-025EWJ", "EPOCH": "2025-11-26T08:43:14.269440", "MEAN_MOTION": 14.20329557, "ECCENTRICITY": 0.00721468, "INCLINATION": 98.6819, "RA_OF_ASC_NODE": 12.7746, "ARG_OF_PERICENTER": 119.8468, "MEAN_ANOMALY": 240.9905, "EPHEMERIS_TYPE": 0, "CLASSIFICATION_TYPE": "U", "NORAD_CAT_ID": 39541, "ELEMENT_SET_NO": 999, "REV_AT_EPOCH": 58770, "BSTAR": 0.00069059031, "MEAN_MOTION_DOT": 1.475e-05, "MEAN_MOTION_DDOT": 0}, "tle": {"line1": "1 39541U 99025EWJ 25330.36335960  .00001475  00000+0  69059-3 0  9993", "line2": "2 39541  98.6819  12.7746 0072146 119.8468 240.9905 14.20329557587703"}}, "geometry": {"type": "Point", "coordinates": [-136.15359037009216, 63.32323701907859]}}, {"type": "Feature", "properties": {"norad_id": 39543, "name": "FENGYUN 1C DEB", "group": "fengyun-1c-debris", "lat": 59.220066520034926, "lon": -1.5151439505472757, "alt_km": 979.8437952467375, "timestamp": "2025-12-09T23:33:24.145452+00:00", "meta": {"OBJECT_NAME": "FENGYUN 1C DEB", "OBJECT_ID": "1999-025EWL", "EPOCH": "2025-12-09T09:13:58.760832", "MEAN_MOTION": 13.70179109, "ECCENTRICITY": 0.03392832, "INCLINATION": 99.0427, "RA_OF_ASC_NODE": 13.4293, "ARG_OF_PERICENTER": 150.9759, "MEAN_ANOMALY": 211.0729, "EPHEMERIS_TYPE": 0, "CLASSIFICATION_TYPE": "U", "NORAD_CAT_ID": 39543, "ELEMENT_SET_NO": 999, "REV_AT_EPOCH": 49139, "BSTAR": 0.0013930077, "MEAN_MOTION_DOT": 1.804e-05, "MEAN_MOTION_DDOT": 0}, "tle": {"line1": "1 39543U 99025EWL 25343.38470788  .00001804  00000+0  13930-2 0  9991", "line2": "2 39543  99.0427  13.4293 0339283 150.9759 211.0729 13.70179109491399"}}, "geometry": {"type": "Point", "coordinates": [-1.5151439505472757, 59.220066520034926]}}]}